COSMOS 1892             
1 18421U 87088A   20213.72609839  .00000624  00000-0  29742-4 0  9999
2 18421  82.4983 229.7229 0013374 272.7770  87.1932 15.17183127791266
SL-14 R/B               
1 18749U 88001B   20214.42795782  .00000041  00000-0  20626-5 0  9995
2 18749  82.5160 315.4934 0019604 146.2317 331.5492 14.83223123759632
COSMOS 1933             
1 18958U 88020A   20213.71198419  .00000561  00000-0  38809-4 0  9991
2 18958  82.5284  82.8612 0011873   9.5071 350.6377 15.03742246762900
SL-3 R/B                
1 19046U 88032B   20214.07494957  .00000894  00000-0  70289-4 0  9996
2 19046  97.4004 233.1595 0037722  54.8816 305.5936 15.02727189743958
SL-16 R/B               
1 19120U 88039B   20214.01316961  .00000095  00000-0  68368-4 0  9996
2 19120  71.0150  74.3675 0023892 241.7786 118.0926 14.19208186668243
COSMOS 1953             
1 19210U 88050A   20213.89761755  .00000682  00000-0  44772-4 0  9994
2 19210  82.5166   6.6827 0012747 334.4537  25.6059 15.05994230728352
SL-8 R/B                
1 19257U 88053B   20213.64075343  .00000040  00000-0  22038-4 0  9991
2 19257  74.0488 279.7375 0021532 249.5232 218.3039 14.37474124682354
COSMOS 1975             
1 19573U 88093A   20213.77203839  .00000619  00000-0  41595-4 0  9994
2 19573  82.5215 321.2497 0014760  18.3087 341.8667 15.04902585731312
SL-14 R/B               
1 19574U 88093B   20213.94793505  .00000048  00000-0  29585-5 0  9990
2 19574  82.5336 158.4447 0020574 318.6786 104.6743 14.83333512697465
SL-16 R/B               
1 19650U 88102B   20213.92529896 -.00000311  00000-0 -13394-3 0  9998
2 19650  71.0004 136.3947 0016486 249.9975 109.9373 14.15789943637175
INTERCOSMOS 24          
1 20261U 89080A   20214.49947719  .00000049  00000-0  11240-4 0  9990
2 20261  82.6071 351.1286 1202603 343.9789  12.6161 12.56123780409241
SL-14 R/B               
1 20262U 89080C   20214.35891691  .00000082  00000-0  18615-4 0  9993
2 20262  82.5918  45.1549 1237052 174.7045 186.8678 12.48943185404167
DELTA 2 R/B(1)          
1 20303U 89085B   20213.78025559  .00001292  00000-0  43075-4 0  9994
2 20303  35.6292  91.9740 0095232 210.9428 148.5664 15.27472338674849
DELTA 1 R/B             
1 20323U 89089B   20213.91846204  .00000001  00000-0  91725-5 0  9996
2 20323  97.0960 352.6396 0073319  91.1825 269.7773 14.48353453599303
ARIANE 40 R/B           
1 20443U 90005H   20214.11169203  .00000001  00000-0  14981-4 0  9997
2 20443  98.5730 275.8564 0009978 204.0644 156.0078 14.38094202598795
DELTA 2 R/B(1)          
1 20453U 90008B   20214.04552537  .00000262  00000-0  17574-4 0  9999
2 20453  35.6268 353.3530 0281221 317.0445  40.8620 14.85623917617839
COSMOS 2058             
1 20465U 90010A   20214.13582028  .00000240  00000-0  17993-4 0  9994
2 20465  82.4873 230.3458 0016747  54.3403 305.9376 14.98025484656128
SL-14 R/B               
1 20466U 90010B   20213.98948468  .00000072  00000-0  61783-5 0  9991
2 20466  82.5025  25.0919 0020278 187.0235 173.0698 14.81389094646381
SL-14 R/B               
1 20511U 90018B   20213.82981566  .00000040  00000-0  22994-5 0  9995
2 20511  82.5252 331.8193 0016801 337.1733 180.7698 14.80044704640771
HST                     
1 20580U 90037B   20213.86922326  .00000372  00000-0  11625-4 0  9991
2 20580  28.4706  25.8908 0002586 206.9456 297.0946 15.09411413462771
SL-16 R/B               
1 20625U 90046B   20213.62814051  .00000119  00000-0  86614-4 0  9999
2 20625  70.9990 275.4783 0014208 183.9485 176.1528 14.14659977559114
COSMOS 2084             
1 20663U 90055A   20213.88621204 -.00000059  00000-0  12138-4 0  9999
2 20663  62.7958  19.8324 0028944 282.3257  77.4596 14.92099661629999
SL-6 R/B(2)             
1 20666U 90055D   20213.59623506 -.00000104  00000-0  82811-5 0  9994
2 20666  62.7865 297.1251 0051041 350.7675   9.2475 14.92349443631883
SL-8 R/B                
1 20775U 90078B   20214.44741066  .00002281  00000-0  10792-3 0  9991
2 20775  82.9263 189.5307 0574665  55.4092 309.9933 14.34466115512182
SL-8 R/B                
1 21088U 91006B   20213.64284598 -.00000020  00000-0 -35860-4 0  9999
2 21088  82.9403 252.3594 0022703  11.1649 105.1290 13.77148654482292
OKEAN-3                 
1 21397U 91039A   20214.28662868  .00000188  00000-0  15534-4 0  9998
2 21397  82.5234 134.0883 0018560  24.2592 335.9498 14.92942702580014
COSMOS 2151             
1 21422U 91042A   20213.58368034  .00000140  00000-0  11161-4 0  9991
2 21422  82.4986 240.9261 0015789  86.4357 273.8668 14.92143149557462
SL-14 R/B               
1 21423U 91042B   20214.42912415  .00000042  00000-0  24897-5 0  9996
2 21423  82.4960 334.8666 0019063 110.3649 249.9614 14.79795282571352
ERS-1                   
1 21574U 91050A   20213.88706135  .00000019  00000-0  20825-4 0  9991
2 21574  98.6000 167.2678 0033423 153.0882 207.2047 14.37750787521507
ARIANE 40 R/B           
1 21610U 91050F   20213.78923459 -.00000011  00000-0  10261-4 0  9997
2 21610  98.4630 282.5781 0004331 118.7511 351.2087 14.40909532524082
INTERCOSMOS 25          
1 21819U 91086A   20213.83036938 -.00000201  00000-0 -45582-4 0  9996
2 21819  82.5905  99.7649 1516759 177.4287 183.5852 12.05145799249635
SL-8 R/B                
1 21876U 92008B   20213.90061293  .00000004  00000-0 -12141-4 0  9999
2 21876  82.9284 349.3822 0036100  89.9875  24.5414 13.75656994427981
SL-8 R/B                
1 21938U 92020B   20213.56064389 -.00000068  00000-0 -86184-4 0  9992
2 21938  82.9279 233.8130 0027907 249.4885 220.5823 13.75282853420032
COSMOS 2219             
1 22219U 92076A   20214.50368289  .00000169  00000-0  11446-3 0  9995
2 22219  71.0626 333.6005 0016282  84.7988 275.4992 14.13651031429506
SL-16 R/B               
1 22220U 92076B   20214.20916417 -.00000273  00000-0 -11291-3 0  9992
2 22220  70.9999 177.3699 0014155 325.5979 125.7164 14.16458767432342
COSMOS 2221             
1 22236U 92080A   20214.07756264  .00000157  00000-0  14399-4 0  9993
2 22236  82.5063  61.4887 0016863 168.5657 191.5947 14.87936215496952
SL-16 R/B               
1 22285U 92093B   20213.76495348 -.00000121  00000-0 -38013-4 0  9991
2 22285  71.0225 339.5545 0005113 213.4102 146.6699 14.15042209423889
COSMOS 2228             
1 22286U 92094A   20213.95595182  .00000134  00000-0  11795-4 0  9991
2 22286  82.5201  17.8884 0019707 295.2044  64.7130 14.88153725492130
SL-16 R/B               
1 22566U 93016B   20214.14735240 -.00000276  00000-0 -11782-3 0  9994
2 22566  71.0061 191.9333 0011294 209.3336 150.7154 14.14962233412667
COSMOS 2242             
1 22626U 93024A   20214.00525997  .00000141  00000-0  12661-4 0  9998
2 22626  82.5202  45.9873 0017542 295.4460  64.4942 14.88009825475789
SL-16 R/B               
1 22803U 93059B   20213.88124143  .00000169  00000-0  10826-3 0  9996
2 22803  70.9913   5.6374 0015058  88.1069 272.1779 14.16825565389853
ARIANE 40 R/B           
1 22830U 93061H   20213.75886738  .00000008  00000-0  19941-4 0  9990
2 22830  98.7618 263.3576 0010834 186.4447 173.6598 14.31453539401415
COSMOS 2278             
1 23087U 94023A   20214.24670329  .00000302  00000-0  18432-3 0  9996
2 23087  71.0543 134.0301 0010673 272.1117  87.8783 14.13807049355777
SL-16 R/B               
1 23088U 94023B   20214.51348954 -.00000002  00000-0  23577-4 0  9998
2 23088  70.9980  46.5444 0003629 201.3110 158.7861 14.14685543356956
SL-16 R/B               
1 23343U 94074B   20213.76357075 -.00000010  00000-0  59059-5 0  9992
2 23343  97.9959 266.3647 0007196  19.5345  92.0647 14.76830753384950
SL-16 R/B               
1 23405U 94077B   20213.80298801  .00000179  00000-0  11651-3 0  9999
2 23405  70.9850 337.2121 0002422 341.4015  18.7019 14.15223060326632
ERS-2                   
1 23560U 95021A   20214.03208732  .00000483  00000-0  24206-4 0  9990
2 23560  98.5461  13.6431 0004059  38.4139 321.7383 15.23230024348931
ARIANE 40+ R/B          
1 23561U 95021B   20214.12508958  .00000014  00000-0  19692-4 0  9997
2 23561  98.7210 253.9953 0008016 118.0907 302.5168 14.37976954325216
SL-16 R/B               
1 23705U 95058B   20214.11942617 -.00000292  00000-0 -12576-3 0  9993
2 23705  71.0213 155.2393 0012769 348.3454  11.7372 14.15135085278592
SL-16 R/B               
1 24298U 96051B   20214.34225055 -.00000095  00000-0 -25220-4 0  9992
2 24298  70.8418 175.9016 0018353 280.0162  79.8887 14.12500136232954
ORBVIEW 2 (SEASTAR)     
1 24883U 97037A   20213.93097375 -.00000003  00000-0  14832-4 0  9998
2 24883  98.6149 327.0025 0001997   4.7366 355.3837 14.33563291215082
SL-16 R/B               
1 25400U 98043G   20214.42680816 -.00000037  00000-0  26165-5 0  9995
2 25400  98.6079 149.5292 0009449 198.0053 162.0793 14.25458369147654
SL-16 R/B               
1 25407U 98045B   20213.92135366 -.00000130  00000-0 -41816-4 0  9997
2 25407  71.0113 164.1572 0010063 268.5972  91.3998 14.15801837137376
ISS (ZARYA)             
1 25544U 98067A   20214.25183516  .00000626  00000-0  19413-4 0  9996
2 25544  51.6438 125.4171 0000640 338.8146 125.0994 15.49126788239008
SL-8 R/B                
1 25723U 99022C   20213.17607682  .00013440  00000-0  90478-4 0  9990
2 25723  48.4093 123.8350 0005295 202.8592 157.2126 15.75383940184552
CZ-4B R/B               
1 25732U 99025C   20213.93669861 -.00000026  00000-0  92638-5 0  9992
2 25732  98.9418 242.9740 0038400  84.0776 337.9980 14.17679312 98125
OKEAN-O                 
1 25860U 99039A   20213.62344794  .00000020  00000-0  10551-4 0  9996
2 25860  98.2125 233.3876 0001913  90.1082 270.0346 14.76670510132124
SL-16 R/B               
1 25861U 99039B   20213.99495873  .00000008  00000-0  86468-5 0  9999
2 25861  98.2079 217.0296 0016079  19.6190  33.2254 14.78585070134344
DELTA 2 R/B             
1 25876U 99041E   20213.20256671 -.00000120  00000-0  21613-4 0  9999
2 25876  51.7632 137.6321 0531706 111.6907 254.1490 14.04437061 74808
